[{"OBJECT_NAME":"OBJECT B","OBJECT_ID":"2024-205B","EPOCH":"2026-03-09T23:46:05.115936","MEAN_MOTION":15.28158697,"ECCENTRICITY":0.00105957,"INCLINATION":97.4192,"RA_OF_ASC_NODE":146.9311,"ARG_OF_PERICENTER":34.0947,"MEAN_ANOMALY":326.0972,"EPHEMERIS_TYPE":0,"CLASSIFICATION_TYPE":"U","NORAD_CAT_ID":61895,"ELEMENT_SET_NO":999,"REV_AT_EPOCH":7352,"BSTAR":0.00054154807,"MEAN_MOTION_DOT":0.00014827,"MEAN_MOTION_DDOT":0},{"OBJECT_NAME":"STARLINK-32420","OBJECT_ID":"2024-207V","EPOCH":"2026-03-09T22:33:23.291424","MEAN_MOTION":15.27613225,"ECCENTRICITY":0.00019085,"INCLINATION":43.0006,"RA_OF_ASC_NODE":280.0405,"ARG_OF_PERICENTER":276.6086,"MEAN_ANOMALY":83.4549,"EPHEMERIS_TYPE":0,"CLASSIFICATION_TYPE":"U","NORAD_CAT_ID":61931,"ELEMENT_SET_NO":999,"REV_AT_EPOCH":7476,"BSTAR":0.00099763493,"MEAN_MOTION_DOT":0.00027321,"MEAN_MOTION_DDOT":0}]
